[{"OBJECT_NAME":"ONEWEB-0509","OBJECT_ID":"2022-138Q","EPOCH":"2026-06-01T11:22:05.636640","MEAN_MOTION":13.1972689,"ECCENTRICITY":0.0001701,"INCLINATION":87.9167,"RA_OF_ASC_NODE":308.0954,"ARG_OF_PERICENTER":93.009,"MEAN_ANOMALY":267.1238,"EPHEMERIS_TYPE":0,"CLASSIFICATION_TYPE":"U","NORAD_CAT_ID":54127,"ELEMENT_SET_NO":999,"REV_AT_EPOCH":17473,"BSTAR":4.7198000000000004e-05,"MEAN_MOTION_DOT":3.2e-07,"MEAN_MOTION_DDOT":0.0},{"OBJECT_NAME":"ONEWEB-0510","OBJECT_ID":"2022-138R","EPOCH":"2026-06-02T17:43:03.796896","MEAN_MOTION":13.20771417,"ECCENTRICITY":0.0002442,"INCLINATION":87.9184,"RA_OF_ASC_NODE":277.3152,"ARG_OF_PERICENTER":103.727,"MEAN_ANOMALY":256.4136,"EPHEMERIS_TYPE":0,"CLASSIFICATION_TYPE":"U","NORAD_CAT_ID":54128,"ELEMENT_SET_NO":999,"REV_AT_EPOCH":17737,"BSTAR":-3.5029e-05,"MEAN_MOTION_DOT":-1e-08,"MEAN_MOTION_DDOT":0.0},{"OBJECT_NAME":"ONEWEB-0511","OBJECT_ID":"2022-138S","EPOCH":"2026-06-01T11:17:33.379008","MEAN_MOTION":13.19725006,"ECCENTRICITY":0.0001922,"INCLINATION":87.9163,"RA_OF_ASC_NODE":308.0994,"ARG_OF_PERICENTER":86.6429,"MEAN_ANOMALY":273.4924,"EPHEMERIS_TYPE":0,"CLASSIFICATION_TYPE":"U","NORAD_CAT_ID":54129,"ELEMENT_SET_NO":999,"REV_AT_EPOCH":17476,"BSTAR":8.712100000000001e-05,"MEAN_MOTION_DOT":4.8e-07,"MEAN_MOTION_DDOT":0.0},{"OBJECT_NAME":"ONEWEB-0512","OBJECT_ID":"2022-138T","EPOCH":"2026-06-01T11:06:09.319104","MEAN_MOTION":13.19723894,"ECCENTRICITY":0.0001652,"INCLINATION":87.9155,"RA_OF_ASC_NODE":308.1068,"ARG_OF_PERICENTER":84.494,"MEAN_ANOMALY":275.6381,"EPHEMERIS_TYPE":0,"CLASSIFICATION_TYPE":"U","NORAD_CAT_ID":54130,"ELEMENT_SET_NO":999,"REV_AT_EPOCH":17473,"BSTAR":5.1371e-05,"MEAN_MOTION_DOT":3.4e-07,"MEAN_MOTION_DDOT":0.0},{"OBJECT_NAME":"ONEWEB-0513","OBJECT_ID":"2022-138U","EPOCH":"2026-06-01T11:23:33.780192","MEAN_MOTION":13.20267881,"ECCENTRICITY":0.0001804,"INCLINATION":87.9162,"RA_OF_ASC_NODE":308.0504,"ARG_OF_PERICENTER":64.2814,"MEAN_ANOMALY":295.8505,"EPHEMERIS_TYPE":0,"CLASSIFICATION_TYPE":"U","NORAD_CAT_ID":54131,"ELEMENT_SET_NO":999,"REV_AT_EPOCH":17464,"BSTAR":-1.2059000000000001e-05,"MEAN_MOTION_DOT":8e-08,"MEAN_MOTION_DDOT":0.0},{"OBJECT_NAME":"ONEWEB-0514","OBJECT_ID":"2022-138V","EPOCH":"2026-06-01T11:28:54.745824","MEAN_MOTION":13.19726719,"ECCENTRICITY":0.0001922,"INCLINATION":87.9166,"RA_OF_ASC_NODE":308.096,"ARG_OF_PERICENTER":96.0391,"MEAN_ANOMALY":264.0961,"EPHEMERIS_TYPE":0,"CLASSIFICATION_TYPE":"U","NORAD_CAT_ID":54132,"ELEMENT_SET_NO":999,"REV_AT_EPOCH":17475,"BSTAR":5.3959e-05,"MEAN_MOTION_DOT":3.5e-07,"MEAN_MOTION_DDOT":0.0},{"OBJECT_NAME":"ONEWEB-0515","OBJECT_ID":"2022-138W","EPOCH":"2026-06-02T17:23:38.050080","MEAN_MOTION":13.20772759,"ECCENTRICITY":0.0002352,"INCLINATION":87.9191,"RA_OF_ASC_NODE":277.3122,"ARG_OF_PERICENTER":120.6392,"MEAN_ANOMALY":239.4974,"EPHEMERIS_TYPE":0,"CLASSIFICATION_TYPE":"U","NORAD_CAT_ID":54133,"ELEMENT_SET_NO":999,"REV_AT_EPOCH":17739,"BSTAR":-7.0875e-05,"MEAN_MOTION_DOT":-1.6e-07,"MEAN_MOTION_DDOT":0.0},{"OBJECT_NAME":"ONEWEB-0516","OBJECT_ID":"2022-138X","EPOCH":"2026-06-01T10:52:30.900288","MEAN_MOTION":13.1972762,"ECCENTRICITY":0.0001677,"INCLINATION":87.9154,"RA_OF_ASC_NODE":308.109,"ARG_OF_PERICENTER":97.9952,"MEAN_ANOMALY":262.1371,"EPHEMERIS_TYPE":0,"CLASSIFICATION_TYPE":"U","NORAD_CAT_ID":54134,"ELEMENT_SET_NO":999,"REV_AT_EPOCH":17475,"BSTAR":0.00028778,"MEAN_MOTION_DOT":1.28e-06,"MEAN_MOTION_DDOT":0.0},{"OBJECT_NAME":"ONEWEB-0517","OBJECT_ID":"2022-138Y","EPOCH":"2026-06-02T08:13:03.545760","MEAN_MOTION":13.19726731,"ECCENTRICITY":0.0002057,"INCLINATION":87.9162,"RA_OF_ASC_NODE":307.9227,"ARG_OF_PERICENTER":89.3063,"MEAN_ANOMALY":270.8305,"EPHEMERIS_TYPE":0,"CLASSIFICATION_TYPE":"U","NORAD_CAT_ID":54135,"ELEMENT_SET_NO":999,"REV_AT_EPOCH":17487,"BSTAR":-3.9279e-05,"MEAN_MOTION_DOT":-3e-08,"MEAN_MOTION_DDOT":0.0},{"OBJECT_NAME":"ONEWEB-0518","OBJECT_ID":"2022-138Z","EPOCH":"2026-06-01T10:50:17.903904","MEAN_MOTION":13.19727183,"ECCENTRICITY":0.0001644,"INCLINATION":87.9154,"RA_OF_ASC_NODE":308.1109,"ARG_OF_PERICENTER":99.0326,"MEAN_ANOMALY":261.0993,"EPHEMERIS_TYPE":0,"CLASSIFICATION_TYPE":"U","NORAD_CAT_ID":54136,"ELEMENT_SET_NO":999,"REV_AT_EPOCH":17475,"BSTAR":0.00010296,"MEAN_MOTION_DOT":5.4e-07,"MEAN_MOTION_DDOT":0.0},{"OBJECT_NAME":"ONEWEB-0519","OBJECT_ID":"2022-138AA","EPOCH":"2026-06-01T11:26:39.535872","MEAN_MOTION":13.19722759,"ECCENTRICITY":0.0001954,"INCLINATION":87.9166,"RA_OF_ASC_NODE":308.0953,"ARG_OF_PERICENTER":91.19,"MEAN_ANOMALY":268.9456,"EPHEMERIS_TYPE":0,"CLASSIFICATION_TYPE":"U","NORAD_CAT_ID":54137,"ELEMENT_SET_NO":999,"REV_AT_EPOCH":17476,"BSTAR":6.735100000000001e-05,"MEAN_MOTION_DOT":4e-07,"MEAN_MOTION_DDOT":0.0},{"OBJECT_NAME":"ONEWEB-0520","OBJECT_ID":"2022-138AB","EPOCH":"2026-06-01T12:16:40.931904","MEAN_MOTION":13.19727088,"ECCENTRICITY":0.000157,"INCLINATION":87.9164,"RA_OF_ASC_NODE":308.0889,"ARG_OF_PERICENTER":92.1783,"MEAN_ANOMALY":267.953,"EPHEMERIS_TYPE":0,"CLASSIFICATION_TYPE":"U","NORAD_CAT_ID":54138,"ELEMENT_SET_NO":999,"REV_AT_EPOCH":17475,"BSTAR":0.00011545,"MEAN_MOTION_DOT":5.9e-07,"MEAN_MOTION_DDOT":0.0},{"OBJECT_NAME":"ONEWEB-0521","OBJECT_ID":"2022-138AC","EPOCH":"2026-06-01T11:15:16.046208","MEAN_MOTION":13.1972625,"ECCENTRICITY":0.0002032,"INCLINATION":87.9165,"RA_OF_ASC_NODE":308.0862,"ARG_OF_PERICENTER":92.5231,"MEAN_ANOMALY":267.6135,"EPHEMERIS_TYPE":0,"CLASSIFICATION_TYPE":"U","NORAD_CAT_ID":54139,"ELEMENT_SET_NO":999,"REV_AT_EPOCH":17469,"BSTAR":0.00012670999999999998,"MEAN_MOTION_DOT":6.4e-07,"MEAN_MOTION_DDOT":0.0},{"OBJECT_NAME":"ONEWEB-0522","OBJECT_ID":"2022-138AD","EPOCH":"2026-06-01T10:45:41.899104","MEAN_MOTION":13.19727278,"ECCENTRICITY":0.0001679,"INCLINATION":87.9165,"RA_OF_ASC_NODE":308.0927,"ARG_OF_PERICENTER":91.0351,"MEAN_ANOMALY":269.0974,"EPHEMERIS_TYPE":0,"CLASSIFICATION_TYPE":"U","NORAD_CAT_ID":54140,"ELEMENT_SET_NO":999,"REV_AT_EPOCH":17473,"BSTAR":-6.4287e-05,"MEAN_MOTION_DOT":-1.3e-07,"MEAN_MOTION_DDOT":0.0},{"OBJECT_NAME":"ONEWEB-0523","OBJECT_ID":"2022-138AE","EPOCH":"2026-06-02T17:04:14.458944","MEAN_MOTION":13.20769915,"ECCENTRICITY":0.0002617,"INCLINATION":87.9187,"RA_OF_ASC_NODE":277.3255,"ARG_OF_PERICENTER":108.7314,"MEAN_ANOMALY":251.4104,"EPHEMERIS_TYPE":0,"CLASSIFICATION_TYPE":"U","NORAD_CAT_ID":54141,"ELEMENT_SET_NO":999,"REV_AT_EPOCH":17739,"BSTAR":-0.000264,"MEAN_MOTION_DOT":-9.4e-07,"MEAN_MOTION_DDOT":0.0},{"OBJECT_NAME":"ONEWEB-0524","OBJECT_ID":"2022-138AF","EPOCH":"2026-06-02T16:49:42.155904","MEAN_MOTION":13.20769252,"ECCENTRICITY":0.0002137,"INCLINATION":87.9187,"RA_OF_ASC_NODE":277.3243,"ARG_OF_PERICENTER":124.2346,"MEAN_ANOMALY":235.8989,"EPHEMERIS_TYPE":0,"CLASSIFICATION_TYPE":"U","NORAD_CAT_ID":54142,"ELEMENT_SET_NO":999,"REV_AT_EPOCH":17739,"BSTAR":-0.00025735000000000005,"MEAN_MOTION_DOT":-9.2e-07,"MEAN_MOTION_DDOT":0.0},{"OBJECT_NAME":"ONEWEB-0525","OBJECT_ID":"2022-138AG","EPOCH":"2026-06-01T11:12:58.768704","MEAN_MOTION":13.19724119,"ECCENTRICITY":0.000141,"INCLINATION":87.9164,"RA_OF_ASC_NODE":308.0969,"ARG_OF_PERICENTER":92.4915,"MEAN_ANOMALY":267.6379,"EPHEMERIS_TYPE":0,"CLASSIFICATION_TYPE":"U","NORAD_CAT_ID":54143,"ELEMENT_SET_NO":999,"REV_AT_EPOCH":17475,"BSTAR":-5.663200000000001e-05,"MEAN_MOTION_DOT":-1e-07,"MEAN_MOTION_DDOT":0.0},{"OBJECT_NAME":"ONEWEB-0526","OBJECT_ID":"2022-138AH","EPOCH":"2026-06-02T08:01:43.009248","MEAN_MOTION":13.19729964,"ECCENTRICITY":0.0001712,"INCLINATION":87.9164,"RA_OF_ASC_NODE":307.9238,"ARG_OF_PERICENTER":96.3747,"MEAN_ANOMALY":263.758,"EPHEMERIS_TYPE":0,"CLASSIFICATION_TYPE":"U","NORAD_CAT_ID":54144,"ELEMENT_SET_NO":999,"REV_AT_EPOCH":17484,"BSTAR":-9.957200000000001e-05,"MEAN_MOTION_DOT":-2.7e-07,"MEAN_MOTION_DDOT":0.0},{"OBJECT_NAME":"ONEWEB-0529","OBJECT_ID":"2022-138AJ","EPOCH":"2026-06-02T08:06:13.911264","MEAN_MOTION":13.19727302,"ECCENTRICITY":0.0001591,"INCLINATION":87.9161,"RA_OF_ASC_NODE":307.9334,"ARG_OF_PERICENTER":93.8499,"MEAN_ANOMALY":266.2816,"EPHEMERIS_TYPE":0,"CLASSIFICATION_TYPE":"U","NORAD_CAT_ID":54145,"ELEMENT_SET_NO":999,"REV_AT_EPOCH":17486,"BSTAR":-3.9410000000000004e-05,"MEAN_MOTION_DOT":-3e-08,"MEAN_MOTION_DDOT":0.0},{"OBJECT_NAME":"ONEWEB-0531","OBJECT_ID":"2022-138AK","EPOCH":"2026-06-02T07:24:53.229024","MEAN_MOTION":13.20771984,"ECCENTRICITY":0.0002573,"INCLINATION":87.9182,"RA_OF_ASC_NODE":277.401,"ARG_OF_PERICENTER":115.057,"MEAN_ANOMALY":245.0831,"EPHEMERIS_TYPE":0,"CLASSIFICATION_TYPE":"U","NORAD_CAT_ID":54146,"ELEMENT_SET_NO":999,"REV_AT_EPOCH":17734,"BSTAR":8.200900000000001e-05,"MEAN_MOTION_DOT":4.6e-07,"MEAN_MOTION_DDOT":0.0},{"OBJECT_NAME":"ONEWEB-0535","OBJECT_ID":"2022-138AL","EPOCH":"2026-06-01T11:03:52.621344","MEAN_MOTION":13.19724313,"ECCENTRICITY":0.0002154,"INCLINATION":87.9164,"RA_OF_ASC_NODE":308.0917,"ARG_OF_PERICENTER":98.3155,"MEAN_ANOMALY":261.8222,"EPHEMERIS_TYPE":0,"CLASSIFICATION_TYPE":"U","NORAD_CAT_ID":54147,"ELEMENT_SET_NO":999,"REV_AT_EPOCH":17476,"BSTAR":0.00028483999999999996,"MEAN_MOTION_DOT":1.27e-06,"MEAN_MOTION_DDOT":0.0},{"OBJECT_NAME":"ONEWEB-0536","OBJECT_ID":"2022-138AM","EPOCH":"2026-06-02T07:05:27.773376","MEAN_MOTION":13.20770338,"ECCENTRICITY":0.0002593,"INCLINATION":87.9174,"RA_OF_ASC_NODE":277.4274,"ARG_OF_PERICENTER":119.5925,"MEAN_ANOMALY":240.5467,"EPHEMERIS_TYPE":0,"CLASSIFICATION_TYPE":"U","NORAD_CAT_ID":54148,"ELEMENT_SET_NO":999,"REV_AT_EPOCH":17733,"BSTAR":0.00027604,"MEAN_MOTION_DOT":1.25e-06,"MEAN_MOTION_DDOT":0.0},{"OBJECT_NAME":"ONEWEB-0527","OBJECT_ID":"2022-166A","EPOCH":"2026-06-02T17:06:19.383840","MEAN_MOTION":13.21825186,"ECCENTRICITY":0.0001995,"INCLINATION":87.9257,"RA_OF_ASC_NODE":246.8746,"ARG_OF_PERICENTER":102.3474,"MEAN_ANOMALY":257.7883,"EPHEMERIS_TYPE":0,"CLASSIFICATION_TYPE":"U","NORAD_CAT_ID":54642,"ELEMENT_SET_NO":999,"REV_AT_EPOCH":16962,"BSTAR":-6.3333e-05,"MEAN_MOTION_DOT":-1.3e-07,"MEAN_MOTION_DDOT":0.0}]